1 41727U 16049A   25358.32108818  .00000304  00000+0  10535-3 0  9998
2 41727  98.4033   3.7305 0001138  55.3835 304.7462 14.42217030493444
